{"type": "FeatureCollection", "features": [ {"type": "Feature", "properties": {"norad_id": 33841, "name": "COSMOS 2251 DEB", "group": "cosmos-2251-debris", "lat": -6.329001681837061, "lon": 78.68080696666263, "alt_km": 781.7152017436065, "timestamp": "2025-12-24T05:51:20.002283+00:00", "meta": {"OBJECT_NAME": "COSMOS 2251 DEB", "OBJECT_ID": "1993-036CJ", "EPOCH": "2025-12-23T17:27:11.388096", "MEAN_MOTION": 14.37875344, "ECCENTRICITY": 0.00209715, "INCLINATION": 74.0376, "RA_OF_ASC_NODE": 257.8127, "ARG_OF_PERICENTER": 336.2105, "MEAN_ANOMALY": 56.496, "EPHEMERIS_TYPE": 0, "CLASSIFICATION_TYPE": "U", "NORAD_CAT_ID": 33841, "ELEMENT_SET_NO": 999, "REV_AT_EPOCH": 88272, "BSTAR": 0.00019464312, "MEAN_MOTION_DOT": 5.62e-06, "MEAN_MOTION_DDOT": 0}, "tle": {"line1": "1 33841U 93036CJ  25357.72721514  .00000562  00000+0  19464-3 0  9990", "line2": "2 33841  74.0376 257.8127 0020971 336.2105  56.4960 14.37875344882722"}}, "geometry": {"type": "Point", "coordinates": [78.68080696666263, -6.329001681837061]}}, {"type": "Feature", "properties": {"norad_id": 33842, "name": "COSMOS 2251 DEB", "group": "cosmos-2251-debris", "lat": -70.4863235329347, "lon": 144.39928606160183, "alt_km": 724.9966510137419, "timestamp": "2025-12-24T05:51:20.002293+00:00", "meta": {"OBJECT_NAME": "COSMOS 2251 DEB", "OBJECT_ID": "1993-036CK", "EPOCH": "2025-12-23T21:53:43.896768", "MEAN_MOTION": 14.42717675, "ECCENTRICITY": 0.00475648, "INCLINATION": 74.0315, "RA_OF_ASC_NODE": 198.9135, "ARG_OF_PERICENTER": 304.0417, "MEAN_ANOMALY": 55.6227, "EPHEMERIS_TYPE": 0, "CLASSIFICATION_TYPE": "U", "NORAD_CAT_ID": 33842, "ELEMENT_SET_NO": 999, "REV_AT_EPOCH": 88498, "BSTAR": 0.00024699763, "MEAN_MOTION_DOT": 8.06e-06, "MEAN_MOTION_DDOT": 0}, "tle": {"line1": "1 33842U 93036CK  25357.91231362  .00000806  00000+0  24700-3 0  9999", "line2": "2 33842  74.0315 198.9135 0047564 304.0417  55.6227 14.42717675884981"}}, "geometry": {"type": "Point", "coordinates": [144.39928606160183, -70.4863235329347]}}, {"type": "Feature", "properties": {"norad_id": 33844, "name": "COSMOS 2251 DEB", "group": "cosmos-2251-debris", "lat": -20.022475002971856, "lon": -142.24863097080203, "alt_km": 813.4842883546235, "timestamp": "2025-12-24T05:51:20.002303+00:00", "meta": {"OBJECT_NAME": "COSMOS 2251 DEB", "OBJECT_ID": "1993-036CM", "EPOCH": "2025-12-23T19:25:34.154112", "MEAN_MOTION": 14.33737167, "ECCENTRICITY": 0.00471715, "INCLINATION": 74.0665, "RA_OF_ASC_NODE": 32.5689, "ARG_OF_PERICENTER": 50.9532, "MEAN_ANOMALY": 67.4785, "EPHEMERIS_TYPE": 0, "CLASSIFICATION_TYPE": "U", "NORAD_CAT_ID": 33844, "ELEMENT_SET_NO": 999, "REV_AT_EPOCH": 87884, "BSTAR": 0.0003179093, "MEAN_MOTION_DOT": 8.68e-06, "MEAN_MOTION_DDOT": 0}, "tle": {"line1": "1 33844U 93036CM  25357.80942308  .00000868  00000+0  31791-3 0  9994", "line2": "2 33844  74.0665  32.5689 0047171  50.9532  67.4785 14.33737167878843"}}, "geometry": {"type": "Point", "coordinates": [-142.24863097080203, -20.022475002971856]}}, {"type": "Feature", "properties": {"norad_id": 33848, "name": "COSMOS 2251 DEB", "group": "cosmos-2251-debris", "lat": 74.00950235166567, "lon": 63.88989431646052, "alt_km": 722.7335198037026, "timestamp": "2025-12-24T05:51:20.002313+00:00", "meta": {"OBJECT_NAME": "COSMOS 2251 DEB", "OBJECT_ID": "1993-036CR", "EPOCH": "2025-12-23T16:58:54.287328", "MEAN_MOTION": 14.44133736, "ECCENTRICITY": 0.00418105, "INCLINATION": 74.0321, "RA_OF_ASC_NODE": 337.2342, "ARG_OF_PERICENTER": 29.8541, "MEAN_ANOMALY": 151.4841, "EPHEMERIS_TYPE": 0, "CLASSIFICATION_TYPE": "U", "NORAD_CAT_ID": 33848, "ELEMENT_SET_NO": 999, "REV_AT_EPOCH": 87989, "BSTAR": 0.0011234213, "MEAN_MOTION_DOT": 3.867e-05, "MEAN_MOTION_DDOT": 0}, "tle": {"line1": "1 33848U 93036CR  25357.70757277  .00003867  00000+0  11234-2 0  9997", "line2": "2 33848  74.0321 337.2342 0041810  29.8541 151.4841 14.44133736879893"}}, "geometry": {"type": "Point", "coordinates": [63.88989431646052, 74.00950235166567]}}, {"type": "Feature", "properties": {"norad_id": 33892, "name": "COSMOS 2251 DEB", "group": "cosmos-2251-debris", "lat": -53.247695110836005, "lon": -76.02289443426503, "alt_km": 867.9146846850299, "timestamp": "2025-12-24T05:51:20.002323+00:00", "meta": {"OBJECT_NAME": "COSMOS 2251 DEB", "OBJECT_ID": "1993-036CV", "EPOCH": "2025-12-23T07:05:37.567680", "MEAN_MOTION": 14.23371664, "ECCENTRICITY": 0.01122305, "INCLINATION": 73.8024, "RA_OF_ASC_NODE": 82.8009, "ARG_OF_PERICENTER": 111.9648, "MEAN_ANOMALY": 305.6008, "EPHEMERIS_TYPE": 0, "CLASSIFICATION_TYPE": "U", "NORAD_CAT_ID": 33892, "ELEMENT_SET_NO": 999, "REV_AT_EPOCH": 87105, "BSTAR": 0.00057999949, "MEAN_MOTION_DOT": 1.378e-05, "MEAN_MOTION_DDOT": 0}, "tle": {"line1": "1 33892U 93036CV  25357.29557370  .00001378  00000+0  58000-3 0  9990", "line2": "2 33892  73.8024  82.8009 0112230 111.9648 305.6008 14.23371664871057"}}, "geometry": {"type": "Point", "coordinates": [-76.02289443426503, -53.247695110836005]}}, {"type": "Feature", "properties": {"norad_id": 33894, "name": "COSMOS 2251 DEB", "group": "cosmos-2251-debris", "lat": -59.33728314113125, "lon": -179.29086187273023, "alt_km": 750.7698342571348, "timestamp": "2025-12-24T05:51:20.002334+00:00", "meta": {"OBJECT_NAME": "COSMOS 2251 DEB", "OBJECT_ID": "1993-036CX", "EPOCH": "2025-12-23T08:36:16.381152", "MEAN_MOTION": 13.21325224, "ECCENTRICITY": 0.05788054, "INCLINATION": 73.7666, "RA_OF_ASC_NODE": 332.6471, "ARG_OF_PERICENTER": 250.6671, "MEAN_ANOMALY": 103.0989, "EPHEMERIS_TYPE": 0, "CLASSIFICATION_TYPE": "U", "NORAD_CAT_ID": 33894, "ELEMENT_SET_NO": 999, "REV_AT_EPOCH": 80848, "BSTAR": 0.00065331704, "MEAN_MOTION_DOT": 6.26e-06, "MEAN_MOTION_DDOT": 0}, "tle": {"line1": "1 33894U 93036CX  25357.35852293  .00000626  00000+0  65332-3 0  9992", "line2": "2 33894  73.7666 332.6471 0578805 250.6671 103.0989 13.21325224808483"}}, "geometry": {"type": "Point", "coordinates": [-179.29086187273023, -59.33728314113125]}}, {"type": "Feature", "properties": {"norad_id": 33896, "name": "COSMOS 2251 DEB", "group": "cosmos-2251-debris", "lat": 50.45716054187494, "lon": -64.86731600134502, "alt_km": 915.0020578822159, "timestamp": "2025-12-24T05:51:20.002344+00:00", "meta": {"OBJECT_NAME": "COSMOS 2251 DEB", "OBJECT_ID": "1993-036CZ", "EPOCH": "2025-12-23T19:26:24.256608", "MEAN_MOTION": 14.19062722, "ECCENTRICITY": 0.0127126, "INCLINATION": 73.7663, "RA_OF_ASC_NODE": 136.585, "ARG_OF_PERICENTER": 310.487, "MEAN_ANOMALY": 119.758, "EPHEMERIS_TYPE": 0, "CLASSIFICATION_TYPE": "U", "NORAD_CAT_ID": 33896, "ELEMENT_SET_NO": 999, "REV_AT_EPOCH": 86897, "BSTAR": 0.00052827049, "MEAN_MOTION_DOT": 1.168e-05, "MEAN_MOTION_DDOT": 0}, "tle": {"line1": "1 33896U 93036CZ  25357.81000297  .00001168  00000+0  52827-3 0  9991", "line2": "2 33896  73.7663 136.5850 0127126 310.4870 119.7580 14.19062722868976"}}, "geometry": {"type": "Point", "coordinates": [-64.86731600134502, 50.45716054187494]}}, {"type": "Feature", "properties": {"norad_id": 33899, "name": "COSMOS 2251 DEB", "group": "cosmos-2251-debris", "lat": 74.0258365803814, "lon": 156.49379419829992, "alt_km": 648.0841440712302, "timestamp": "2025-12-24T05:51:20.002354+00:00", "meta": {"OBJECT_NAME": "COSMOS 2251 DEB", "OBJECT_ID": "1993-036DC", "EPOCH": "2025-12-23T11:28:17.893632", "MEAN_MOTION": 14.61275441, "ECCENTRICITY": 0.00560268, "INCLINATION": 74.0532, "RA_OF_ASC_NODE": 65.2153, "ARG_OF_PERICENTER": 124.7268, "MEAN_ANOMALY": 258.4247, "EPHEMERIS_TYPE": 0, "CLASSIFICATION_TYPE": "U", "NORAD_CAT_ID": 33899, "ELEMENT_SET_NO": 999, "REV_AT_EPOCH": 88996, "BSTAR": 0.00081478627, "MEAN_MOTION_DOT": 4.083e-05, "MEAN_MOTION_DDOT": 0}, "tle": {"line1": "1 33899U 93036DC  25357.47798488  .00004083  00000+0  81479-3 0  9996", "line2": "2 33899  74.0532  65.2153 0056026 124.7268 258.4247 14.61275441889963"}}, "geometry": {"type": "Point", "coordinates": [156.49379419829992, 74.0258365803814]}}, {"type": "Feature", "properties": {"norad_id": 33900, "name": "COSMOS 2251 DEB", "group": "cosmos-2251-debris", "lat": 6.878619543816612, "lon": -20.0756425641405, "alt_km": 716.0968827352317, "timestamp": "2025-12-24T05:51:20.002364+00:00", "meta": {"OBJECT_NAME": "COSMOS 2251 DEB", "OBJECT_ID": "1993-036DD", "EPOCH": "2025-12-23T23:22:33.599136", "MEAN_MOTION": 14.58384795, "ECCENTRICITY": 0.00463861, "INCLINATION": 74.0183, "RA_OF_ASC_NODE": 338.4573, "ARG_OF_PERICENTER": 127.2681, "MEAN_ANOMALY": 263.5944, "EPHEMERIS_TYPE": 0, "CLASSIFICATION_TYPE": "U", "NORAD_CAT_ID": 33900, "ELEMENT_SET_NO": 999, "REV_AT_EPOCH": 89200, "BSTAR": 0.00036964038, "MEAN_MOTION_DOT": 1.708e-05, "MEAN_MOTION_DDOT": 0}, "tle": {"line1": "1 33900U 93036DD  25357.97399999  .00001708  00000+0  36964-3 0  9998", "line2": "2 33900  74.0183 338.4573 0046386 127.2681 263.5944 14.58384795892003"}}, "geometry": {"type": "Point", "coordinates": [-20.0756425641405, 6.878619543816612]}}, {"type": "Feature", "properties": {"norad_id": 33901, "name": "COSMOS 2251 DEB", "group": "cosmos-2251-debris", "lat": -52.628592600927085, "lon": -132.6626707999108, "alt_km": 517.7979185635704, "timestamp": "2025-12-24T05:51:20.002374+00:00", "meta": {"OBJECT_NAME": "COSMOS 2251 DEB", "OBJECT_ID": "1993-036DE", "EPOCH": "2025-12-23T19:19:31.814976", "MEAN_MOTION": 15.17043147, "ECCENTRICITY": 0.0029829, "INCLINATION": 73.7738, "RA_OF_ASC_NODE": 25.8528, "ARG_OF_PERICENTER": 156.3625, "MEAN_ANOMALY": 203.8948, "EPHEMERIS_TYPE": 0, "CLASSIFICATION_TYPE": "U", "NORAD_CAT_ID": 33901, "ELEMENT_SET_NO": 999, "REV_AT_EPOCH": 89681, "BSTAR": 0.0025146955, "MEAN_MOTION_DOT": 0.00050647, "MEAN_MOTION_DDOT": 0}, "tle": {"line1": "1 33901U 93036DE  25357.80522934  .00050647  00000+0  25147-2 0  9994", "line2": "2 33901  73.7738  25.8528 0029829 156.3625 203.8948 15.17043147896810"}}, "geometry": {"type": "Point", "coordinates": [-132.6626707999108, -52.628592600927085]}}]}